start=new Date('2023-02-11T00:00:00.000Z').valueOf();
sats=[{"ARG_OF_PERICENTER":"75.2492","RA_OF_ASC_NODE":"295.4829","NORAD_CAT_ID":"47154","TIME_SYSTEM":"UTC","REF_FRAME":"TEME","FILE":"3784318","ELEMENT_SET_NO":"999","MEAN_MOTION_DDOT":"0.0000000000000","TLE_LINE2":"2 47154  53.0546 295.4829 0001088  75.2492 284.8617 15.06403124122884","TLE_LINE1":"1 47154U 20088AJ  23041.12699168  .00001934  00000-0  14868-3 0  9998","MEAN_ELEMENT_THEORY":"SGP4","MEAN_MOTION_DOT":"0.00001934","ECCENTRICITY":"0.00010880","GP_ID":"225033260","OBJECT_TYPE":"PAYLOAD","SITE":"AFETR","INCLINATION":"53.0546","RCS_SIZE":"LARGE","PERIOD":"95.592","MEAN_ANOMALY":"284.8617","CENTER_NAME":"EARTH","REV_AT_EPOCH":"12288","COUNTRY_CODE":"US","DECAY_DATE":null,"MEAN_MOTION":"15.06403124","EPOCH":"2023-02-10T03:02:52.081152","OBJECT_ID":"2020-088AJ","EPHEMERIS_TYPE":"0","PERIAPSIS":"546.451","APOAPSIS":"547.957","LAUNCH_DATE":"2020-11-25","OBJECT_NAME":"STARLINK-1868","CLASSIFICATION_TYPE":"U","SEMIMAJOR_AXIS":"6925.339","BSTAR":"0.00014868000000"},{"COUNTRY_CODE":"US","REV_AT_EPOCH":"12260","CENTER_NAME":"EARTH","SITE":"AFETR","INCLINATION":"53.0553","MEAN_ANOMALY":"257.9331","RCS_SIZE":"LARGE","PERIOD":"95.591","OBJECT_TYPE":"PAYLOAD","GP_ID":"225033291","CLASSIFICATION_TYPE":"U","OBJECT_NAME":"STARLINK-1869","SEMIMAJOR_AXIS":"6925.308","BSTAR":"0.00077232000000","PERIAPSIS":"546.239","LAUNCH_DATE":"2020-11-25","APOAPSIS":"548.107","EPHEMERIS_TYPE":"0","OBJECT_ID":"2020-088AK","DECAY_DATE":null,"EPOCH":"2023-02-10T03:53:17.467872","MEAN_MOTION":"15.06413207","MEAN_MOTION_DDOT":"0.0000000000000","ELEMENT_SET_NO":"999","TLE_LINE2":"2 47155  53.0553 315.3284 0001349 102.1809 257.9331 15.06413207122609","FILE":"3784312","REF_FRAME":"TEME","NORAD_CAT_ID":"47155","TIME_SYSTEM":"UTC","RA_OF_ASC_NODE":"315.3284","ARG_OF_PERICENTER":"102.1809","ECCENTRICITY":"0.00013490","MEAN_MOTION_DOT":"0.00011245","MEAN_ELEMENT_THEORY":"SGP4","TLE_LINE1":"1 47155U 20088AK  23041.16200773  .00011245  00000-0  77232-3 0  9993"},{"CENTER_NAME":"EARTH","REV_AT_EPOCH":"12274","COUNTRY_CODE":"US","SITE":"AFETR","INCLINATION":"53.0523","RCS_SIZE":"LARGE","PERIOD":"95.591","MEAN_ANOMALY":"279.7612","GP_ID":"225033330","OBJECT_TYPE":"PAYLOAD","CLASSIFICATION_TYPE":"U","OBJECT_NAME":"STARLINK-1871","SEMIMAJOR_AXIS":"6925.311","BSTAR":"0.00179000000000","PERIAPSIS":"546.294","APOAPSIS":"548.059","LAUNCH_DATE":"2020-11-25","OBJECT_ID":"2020-088AM","EPHEMERIS_TYPE":"0","DECAY_DATE":null,"MEAN_MOTION":"15.06412126","EPOCH":"2023-02-10T03:12:09.726624","ELEMENT_SET_NO":"999","MEAN_MOTION_DDOT":"0.0000000000000","TLE_LINE2":"2 47157  53.0523 305.4641 0001274  80.3521 279.7612 15.06412126122748","TIME_SYSTEM":"UTC","NORAD_CAT_ID":"47157","FILE":"3784315","REF_FRAME":"TEME","ARG_OF_PERICENTER":"80.3521","RA_OF_ASC_NODE":"305.4641","ECCENTRICITY":"0.00012740","MEAN_MOTION_DOT":"0.00026490","MEAN_ELEMENT_THEORY":"SGP4","TLE_LINE1":"1 47157U 20088AM  23041.13344591  .00026490  00000-0  17900-2 0  9992"},{"TLE_LINE1":"1 47158U 20088AN  23041.09013404  .00013519  00000-0  92451-3 0  9997","MEAN_ELEMENT_THEORY":"SGP4","MEAN_MOTION_DOT":"0.00013519","ECCENTRICITY":"0.00010360","ARG_OF_PERICENTER":"97.8241","RA_OF_ASC_NODE":"295.6557","NORAD_CAT_ID":"47158","TIME_SYSTEM":"UTC","FILE":"3784184","REF_FRAME":"TEME","TLE_LINE2":"2 47158  53.0513 295.6557 0001036  97.8241 262.2866 15.06408108122622","MEAN_MOTION_DDOT":"0.0000000000000","ELEMENT_SET_NO":"999","EPOCH":"2023-02-10T02:09:47.581056","MEAN_MOTION":"15.06408108","DECAY_DATE":null,"OBJECT_ID":"2020-088AN","EPHEMERIS_TYPE":"0","LAUNCH_DATE":"2020-11-25","APOAPSIS":"547.906","PERIAPSIS":"546.471","SEMIMAJOR_AXIS":"6925.324","BSTAR":"0.00092451000000","CLASSIFICATION_TYPE":"U","OBJECT_NAME":"STARLINK-1873","GP_ID":"224999612","OBJECT_TYPE":"PAYLOAD","MEAN_ANOMALY":"262.2866","RCS_SIZE":"LARGE","PERIOD":"95.592","INCLINATION":"53.0513","SITE":"AFETR","CENTER_NAME":"EARTH","COUNTRY_CODE":"US","REV_AT_EPOCH":"12262"},{"TLE_LINE2":"2 47161  53.0531 292.5318 0001027  53.4404 306.6680 15.06427947122737","ELEMENT_SET_NO":"999","MEAN_MOTION_DDOT":"0.0000000000000","RA_OF_ASC_NODE":"292.5318","ARG_OF_PERICENTER":"53.4404","FILE":"3785071","REF_FRAME":"TEME","TIME_SYSTEM":"UTC","NORAD_CAT_ID":"47161","ECCENTRICITY":"0.00010270","MEAN_ELEMENT_THEORY":"SGP4","TLE_LINE1":"1 47161U 20088AR  23041.78677742  .00037264  00000-0  25055-2 0  9996","MEAN_MOTION_DOT":"0.00037264","REV_AT_EPOCH":"12273","COUNTRY_CODE":"US","CENTER_NAME":"EARTH","OBJECT_TYPE":"PAYLOAD","GP_ID":"225069431","RCS_SIZE":"LARGE","MEAN_ANOMALY":"306.6680","PERIOD":"95.590","SITE":"AFETR","INCLINATION":"53.0531","APOAPSIS":"547.839","LAUNCH_DATE":"2020-11-25","PERIAPSIS":"546.417","BSTAR":"0.00250550000000","SEMIMAJOR_AXIS":"6925.263","OBJECT_NAME":"STARLINK-1876","CLASSIFICATION_TYPE":"U","EPOCH":"2023-02-10T18:52:57.569088","MEAN_MOTION":"15.06427947","DECAY_DATE":null,"EPHEMERIS_TYPE":"0","OBJECT_ID":"2020-088AR"},{"TLE_LINE2":"2 47162  53.0531 305.5321 0000985  80.6526 279.4574 15.06412806122496","ELEMENT_SET_NO":"999","MEAN_MOTION_DDOT":"0.0000000000000","RA_OF_ASC_NODE":"305.5321","ARG_OF_PERICENTER":"80.6526","REF_FRAME":"TEME","FILE":"3784184","NORAD_CAT_ID":"47162","TIME_SYSTEM":"UTC","ECCENTRICITY":"0.00009850","MEAN_ELEMENT_THEORY":"SGP4","TLE_LINE1":"1 47162U 20088AS  23041.11869867  .00017853  00000-0  12140-2 0  9998","MEAN_MOTION_DOT":"0.00017853","REV_AT_EPOCH":"12249","COUNTRY_CODE":"US","CENTER_NAME":"EARTH","OBJECT_TYPE":"PAYLOAD","GP_ID":"224998111","PERIOD":"95.591","RCS_SIZE":"LARGE","MEAN_ANOMALY":"279.4574","INCLINATION":"53.0531","SITE":"AFETR","APOAPSIS":"547.856","LAUNCH_DATE":"2020-11-25","PERIAPSIS":"546.492","SEMIMAJOR_AXIS":"6925.309","BSTAR":"0.00121400000000","OBJECT_NAME":"STARLINK-1877","CLASSIFICATION_TYPE":"U","MEAN_MOTION":"15.06412806","EPOCH":"2023-02-10T02:50:55.565088","DECAY_DATE":null,"EPHEMERIS_TYPE":"0","OBJECT_ID":"2020-088AS"},{"ECCENTRICITY":"0.00014390","MEAN_ELEMENT_THEORY":"SGP4","TLE_LINE1":"1 47163U 20088AT  23041.15095216  .00031091  00000-0  20954-2 0  9994","MEAN_MOTION_DOT":"0.00031091","TLE_LINE2":"2 47163  53.0527 315.3875 0001439 115.9443 244.1694 15.06428026122606","ELEMENT_SET_NO":"999","MEAN_MOTION_DDOT":"0.0000000000000","RA_OF_ASC_NODE":"315.3875","ARG_OF_PERICENTER":"115.9443","REF_FRAME":"TEME","FILE":"3784320","NORAD_CAT_ID":"47163","TIME_SYSTEM":"UTC","APOAPSIS":"548.124","LAUNCH_DATE":"2020-11-25","PERIAPSIS":"546.131","SEMIMAJOR_AXIS":"6925.263","BSTAR":"0.00209540000000","OBJECT_NAME":"STARLINK-1878","CLASSIFICATION_TYPE":"U","MEAN_MOTION":"15.06428026","EPOCH":"2023-02-10T03:37:22.266624","DECAY_DATE":null,"EPHEMERIS_TYPE":"0","OBJECT_ID":"2020-088AT","COUNTRY_CODE":"US","REV_AT_EPOCH":"12260","CENTER_NAME":"EARTH","OBJECT_TYPE":"PAYLOAD","GP_ID":"225033854","RCS_SIZE":"LARGE","MEAN_ANOMALY":"244.1694","PERIOD":"95.590","SITE":"AFETR","INCLINATION":"53.0527"},{"EPOCH":"2023-02-10T22:26:35.555136","MEAN_MOTION":"15.06417057","DECAY_DATE":null,"OBJECT_ID":"2020-088AU","EPHEMERIS_TYPE":"0","LAUNCH_DATE":"2020-11-25","APOAPSIS":"547.723","PERIAPSIS":"546.600","BSTAR":"0.00098378000000","SEMIMAJOR_AXIS":"6925.296","OBJECT_NAME":"STARLINK-1879","CLASSIFICATION_TYPE":"U","GP_ID":"225069181","OBJECT_TYPE":"PAYLOAD","PERIOD":"95.591","RCS_SIZE":"LARGE","MEAN_ANOMALY":"264.5884","SITE":"AFETR","INCLINATION":"53.0521","CENTER_NAME":"EARTH","COUNTRY_CODE":"US","REV_AT_EPOCH":"12289","TLE_LINE1":"1 47164U 20088AU  23041.93513374  .00014409  00000-0  98378-3 0  9991","MEAN_ELEMENT_THEORY":"SGP4","MEAN_MOTION_DOT":"0.00014409","ECCENTRICITY":"0.00008110","ARG_OF_PERICENTER":"95.5197","RA_OF_ASC_NODE":"281.8628","NORAD_CAT_ID":"47164","TIME_SYSTEM":"UTC","FILE":"3785071","REF_FRAME":"TEME","TLE_LINE2":"2 47164  53.0521 281.8628 0000811  95.5197 264.5884 15.06417057122896","MEAN_MOTION_DDOT":"0.0000000000000","ELEMENT_SET_NO":"999"},{"ECCENTRICITY":"0.00013340","MEAN_MOTION_DOT":"0.00028643","TLE_LINE1":"1 47165U 20088AV  23041.14450091  .00028643  00000-0  19331-2 0  9997","MEAN_ELEMENT_THEORY":"SGP4","MEAN_MOTION_DDOT":"0.0000000000000","ELEMENT_SET_NO":"999","TLE_LINE2":"2 47165  53.0539 305.4106 0001334 106.8912 253.2224 15.06416949122748","REF_FRAME":"TEME","FILE":"3784320","TIME_SYSTEM":"UTC","NORAD_CAT_ID":"47165","RA_OF_ASC_NODE":"305.4106","ARG_OF_PERICENTER":"106.8912","CLASSIFICATION_TYPE":"U","OBJECT_NAME":"STARLINK-1880","BSTAR":"0.00193310000000","SEMIMAJOR_AXIS":"6925.297","PERIAPSIS":"546.238","LAUNCH_DATE":"2020-11-25","APOAPSIS":"548.085","EPHEMERIS_TYPE":"0","OBJECT_ID":"2020-088AV","DECAY_DATE":null,"MEAN_MOTION":"15.06416949","EPOCH":"2023-02-10T03:28:04.878624","REV_AT_EPOCH":"12274","COUNTRY_CODE":"US","CENTER_NAME":"EARTH","INCLINATION":"53.0539","SITE":"AFETR","MEAN_ANOMALY":"253.2224","RCS_SIZE":"LARGE","PERIOD":"95.591","OBJECT_TYPE":"PAYLOAD","GP_ID":"225033860"},{"ECCENTRICITY":"0.00064240","MEAN_MOTION_DOT":"0.00222493","TLE_LINE1":"1 47166U 20088AW  23041.92850694  .00222493  00000-0  14055-2 0  9994","MEAN_ELEMENT_THEORY":"SGP4","TLE_LINE2":"2 47166  53.0388 127.8138 0006424 359.4973 226.4041 15.75415238  1303","ELEMENT_SET_NO":"999","MEAN_MOTION_DDOT":"0.0000000000000","FILE":"3785071","REF_FRAME":"TEME","NORAD_CAT_ID":"47166","TIME_SYSTEM":"UTC","RA_OF_ASC_NODE":"127.8138","ARG_OF_PERICENTER":"359.4973","SEMIMAJOR_AXIS":"6721.587","BSTAR":"0.00140550000000","OBJECT_NAME":"STARLINK-1881","CLASSIFICATION_TYPE":"U","APOAPSIS":"347.770","LAUNCH_DATE":"2020-11-25","PERIAPSIS":"339.134","EPHEMERIS_TYPE":"0","OBJECT_ID":"2020-088AW","EPOCH":"2023-02-10T22:17:02.999616","MEAN_MOTION":"15.75415238","DECAY_DATE":null,"COUNTRY_CODE":"US","REV_AT_EPOCH":"130","CENTER_NAME":"EARTH","RCS_SIZE":"LARGE","PERIOD":"91.404","MEAN_ANOMALY":"226.4041","INCLINATION":"53.0388","SITE":"AFETR","OBJECT_TYPE":"PAYLOAD","GP_ID":"225070183"}];
